IRIDIUM 171             
1 43929U 19002H   23318.93745333  .00000384  00000+0  13024-3 0  9990
2 43929  86.4017  28.8175 0002293  94.2252 265.9206 14.34212975253475
IRIDIUM 170             
1 43930U 19002J   23318.93822744  .00001340  00000+0  20859-3 0  9991
2 43930  86.6136  28.6698 0002352  97.8444 262.3040 14.72256954260187
IRIDIUM 167             
1 43931U 19002K   23318.93110105  .00000349  00000+0  11748-3 0  9998
2 43931  86.4007  28.6328 0002255  96.1506 263.9947 14.34218311253476
IRIDIUM 181             
1 56726U 23068S   23318.25529228  .00000569  00000+0  16217-3 0  9996
2 56726  86.8628  72.1687 0003236 103.1936 256.9627 14.43588359 25985
IRIDIUM 177             
1 56727U 23068T   23318.57599470  .00002108  00000+0  27409-3 0  9994
2 56727  86.1999  57.7114 0002188  92.6483 267.4989 14.80211294 26484
IRIDIUM 174             
1 56728U 23068U   23318.57056733  .00002138  00000+0  27793-3 0  9994
2 56728  86.2006  57.8001 0001984  97.0703 263.0743 14.80215858 26488
IRIDIUM 178             
1 56729U 23068V   23318.56522993  .00002087  00000+0  27132-3 0  9990
2 56729  86.5795  65.0469 0002169  90.2952 269.8518 14.80218066 26481
IRIDIUM 179             
1 56730U 23068W   23318.55978557  .00002096  00000+0  27244-3 0  9996
2 56730  86.6802  66.4678 0001901  97.0117 263.1320 14.80220817 26486
